start=new Date('2023-03-07T00:00:00.000Z').valueOf();
sats=[{"DECAY_DATE":null,"SITE":"AFETR","ARG_OF_PERICENTER":"285.4249","MEAN_ELEMENT_THEORY":"SGP4","MEAN_MOTION":"15.52591420","EPOCH":"2023-03-06T22:00:00.999936","TLE_LINE1":"1 55573U 23020E   23065.91667824 -.01058672  00000-0 -18481-1 0  9995","ECCENTRICITY":"0.00016100","REF_FRAME":"TEME","OBJECT_TYPE":"PAYLOAD","INCLINATION":"42.9978","MEAN_MOTION_DOT":"-0.01058672","EPHEMERIS_TYPE":"0","PERIAPSIS":"408.072","MEAN_MOTION_DDOT":"0.0000000000000","CLASSIFICATION_TYPE":"U","LAUNCH_DATE":"2023-02-12","ELEMENT_SET_NO":"999","OBJECT_NAME":"STARLINK-5738","RA_OF_ASC_NODE":"219.9829","REV_AT_EPOCH":"130","COUNTRY_CODE":"US","RCS_SIZE":"LARGE","TIME_SYSTEM":"UTC","PERIOD":"92.748","TLE_LINE2":"2 55573  42.9978 219.9829 0001610 285.4249 226.5674 15.52591420  1308","OBJECT_ID":"2023-020E","BSTAR":"-0.01848100000000","SEMIMAJOR_AXIS":"6787.300","FILE":"3853141","CENTER_NAME":"EARTH","APOAPSIS":"410.258","NORAD_CAT_ID":"55573","MEAN_ANOMALY":"226.5674","GP_ID":"227630788"},{"PERIOD":"92.740","TLE_LINE2":"2 55574  42.9988 219.9732 0001309 280.9382 235.6945 15.52728302  1309","RCS_SIZE":"LARGE","TIME_SYSTEM":"UTC","BSTAR":"-0.02055000000000","OBJECT_ID":"2023-020F","APOAPSIS":"409.655","CENTER_NAME":"EARTH","NORAD_CAT_ID":"55574","SEMIMAJOR_AXIS":"6786.901","FILE":"3853141","GP_ID":"227629038","MEAN_ANOMALY":"235.6945","ELEMENT_SET_NO":"999","OBJECT_NAME":"STARLINK-5747","RA_OF_ASC_NODE":"219.9732","REV_AT_EPOCH":"130","COUNTRY_CODE":"US","PERIAPSIS":"407.878","CLASSIFICATION_TYPE":"U","LAUNCH_DATE":"2023-02-12","MEAN_MOTION_DDOT":"0.0000000000000","ARG_OF_PERICENTER":"280.9382","DECAY_DATE":null,"SITE":"AFETR","TLE_LINE1":"1 55574U 23020F   23065.91667824 -.01188350  00000-0 -20550-1 0  9993","MEAN_ELEMENT_THEORY":"SGP4","MEAN_MOTION":"15.52728302","EPOCH":"2023-03-06T22:00:00.999936","ECCENTRICITY":"0.00013090","REF_FRAME":"TEME","EPHEMERIS_TYPE":"0","OBJECT_TYPE":"PAYLOAD","INCLINATION":"42.9988","MEAN_MOTION_DOT":"-0.01188350"},{"ELEMENT_SET_NO":"999","OBJECT_NAME":"STARLINK-5745","RA_OF_ASC_NODE":"219.9772","COUNTRY_CODE":"US","REV_AT_EPOCH":"130","RCS_SIZE":"LARGE","TIME_SYSTEM":"UTC","PERIOD":"92.742","TLE_LINE2":"2 55575  42.9985 219.9772 0001310 276.7120 237.5965 15.52686340  1304","OBJECT_ID":"2023-020G","BSTAR":"-0.02062900000000","SEMIMAJOR_AXIS":"6787.024","FILE":"3853141","CENTER_NAME":"EARTH","APOAPSIS":"409.778","NORAD_CAT_ID":"55575","MEAN_ANOMALY":"237.5965","GP_ID":"227629288","DECAY_DATE":null,"SITE":"AFETR","ARG_OF_PERICENTER":"276.7120","MEAN_ELEMENT_THEORY":"SGP4","MEAN_MOTION":"15.52686340","EPOCH":"2023-03-06T22:00:00.999936","TLE_LINE1":"1 55575U 23020G   23065.91667824 -.01190859  00000-0 -20629-1 0  9998","REF_FRAME":"TEME","ECCENTRICITY":"0.00013100","OBJECT_TYPE":"PAYLOAD","MEAN_MOTION_DOT":"-0.01190859","INCLINATION":"42.9985","EPHEMERIS_TYPE":"0","PERIAPSIS":"407.999","MEAN_MOTION_DDOT":"0.0000000000000","LAUNCH_DATE":"2023-02-12","CLASSIFICATION_TYPE":"U"},{"BSTAR":"0.00093140000000","OBJECT_ID":"2023-020H","PERIOD":"91.644","TLE_LINE2":"2 55576  43.0008 219.1855 0002109 271.1772 204.4164 15.71302707  1303","RCS_SIZE":"LARGE","TIME_SYSTEM":"UTC","GP_ID":"227630538","MEAN_ANOMALY":"204.4164","CENTER_NAME":"EARTH","APOAPSIS":"356.595","NORAD_CAT_ID":"55576","SEMIMAJOR_AXIS":"6733.310","FILE":"3853141","OBJECT_NAME":"STARLINK-5751","ELEMENT_SET_NO":"999","COUNTRY_CODE":"US","REV_AT_EPOCH":"130","RA_OF_ASC_NODE":"219.1855","PERIAPSIS":"353.755","CLASSIFICATION_TYPE":"U","LAUNCH_DATE":"2023-02-12","MEAN_MOTION_DDOT":"0.0000000000000","TLE_LINE1":"1 55576U 23020H   23065.91667824  .00123235  00000-0  93140-3 0  9990","MEAN_MOTION":"15.71302707","EPOCH":"2023-03-06T22:00:00.999936","MEAN_ELEMENT_THEORY":"SGP4","ARG_OF_PERICENTER":"271.1772","SITE":"AFETR","DECAY_DATE":null,"EPHEMERIS_TYPE":"0","OBJECT_TYPE":"PAYLOAD","MEAN_MOTION_DOT":"0.00123235","INCLINATION":"43.0008","ECCENTRICITY":"0.00021090","REF_FRAME":"TEME"},{"COUNTRY_CODE":"US","REV_AT_EPOCH":"130","RA_OF_ASC_NODE":"219.8177","OBJECT_NAME":"STARLINK-5752","ELEMENT_SET_NO":"999","GP_ID":"227630289","MEAN_ANOMALY":"299.3628","CENTER_NAME":"EARTH","APOAPSIS":"390.603","NORAD_CAT_ID":"55577","SEMIMAJOR_AXIS":"6767.774","FILE":"3853141","BSTAR":"-0.01004100000000","OBJECT_ID":"2023-020J","PERIOD":"92.348","TLE_LINE2":"2 55577  42.9980 219.8177 0001424 279.9098 299.3628 15.59315420  1301","RCS_SIZE":"LARGE","TIME_SYSTEM":"UTC","EPHEMERIS_TYPE":"0","OBJECT_TYPE":"PAYLOAD","INCLINATION":"42.9980","MEAN_MOTION_DOT":"-0.00741741","ECCENTRICITY":"0.00014240","REF_FRAME":"TEME","TLE_LINE1":"1 55577U 23020J   23065.91667824 -.00741741  00000-0 -10041-1 0  9998","MEAN_ELEMENT_THEORY":"SGP4","MEAN_MOTION":"15.59315420","EPOCH":"2023-03-06T22:00:00.999936","ARG_OF_PERICENTER":"279.9098","SITE":"AFETR","DECAY_DATE":null,"CLASSIFICATION_TYPE":"U","LAUNCH_DATE":"2023-02-12","MEAN_MOTION_DDOT":"0.0000000000000","PERIAPSIS":"388.675"},{"PERIAPSIS":"407.743","MEAN_MOTION_DDOT":"0.0000000000000","CLASSIFICATION_TYPE":"U","LAUNCH_DATE":"2023-02-12","MEAN_MOTION":"15.52749834","MEAN_ELEMENT_THEORY":"SGP4","EPOCH":"2023-03-06T22:00:00.999936","TLE_LINE1":"1 55578U 23020K   23065.91667824 -.01185319  00000-0 -20476-1 0  9996","SITE":"AFETR","DECAY_DATE":null,"ARG_OF_PERICENTER":"282.6807","OBJECT_TYPE":"PAYLOAD","MEAN_MOTION_DOT":"-0.01185319","INCLINATION":"42.9986","EPHEMERIS_TYPE":"0","REF_FRAME":"TEME","ECCENTRICITY":"0.00014150","OBJECT_ID":"2023-020K","BSTAR":"-0.02047600000000","RCS_SIZE":"LARGE","TIME_SYSTEM":"UTC","PERIOD":"92.739","TLE_LINE2":"2 55578  42.9986 219.9664 0001415 282.6807 236.3774 15.52749834  1305","MEAN_ANOMALY":"236.3774","GP_ID":"227629538","SEMIMAJOR_AXIS":"6786.838","FILE":"3853141","APOAPSIS":"409.664","CENTER_NAME":"EARTH","NORAD_CAT_ID":"55578","OBJECT_NAME":"STARLINK-5713","ELEMENT_SET_NO":"999","REV_AT_EPOCH":"130","COUNTRY_CODE":"US","RA_OF_ASC_NODE":"219.9664"},{"DECAY_DATE":null,"SITE":"AFETR","ARG_OF_PERICENTER":"282.5362","MEAN_MOTION":"15.52780140","MEAN_ELEMENT_THEORY":"SGP4","EPOCH":"2023-03-06T22:00:00.999936","TLE_LINE1":"1 55579U 23020L   23065.91667824 -.01186505  00000-0 -20476-1 0  9995","REF_FRAME":"TEME","ECCENTRICITY":"0.00013740","OBJECT_TYPE":"PAYLOAD","MEAN_MOTION_DOT":"-0.01186505","INCLINATION":"42.9981","EPHEMERIS_TYPE":"0","PERIAPSIS":"407.683","MEAN_MOTION_DDOT":"0.0000000000000","LAUNCH_DATE":"2023-02-12","CLASSIFICATION_TYPE":"U","ELEMENT_SET_NO":"999","OBJECT_NAME":"STARLINK-5754","RA_OF_ASC_NODE":"219.9535","COUNTRY_CODE":"US","REV_AT_EPOCH":"130","RCS_SIZE":"LARGE","TIME_SYSTEM":"UTC","PERIOD":"92.737","TLE_LINE2":"2 55579  42.9981 219.9535 0001374 282.5362 241.4690 15.52780140  1306","OBJECT_ID":"2023-020L","BSTAR":"-0.02047600000000","SEMIMAJOR_AXIS":"6786.750","FILE":"3853141","CENTER_NAME":"EARTH","APOAPSIS":"409.548","NORAD_CAT_ID":"55579","MEAN_ANOMALY":"241.4690","GP_ID":"227629788"},{"OBJECT_TYPE":"PAYLOAD","INCLINATION":"43.0002","MEAN_MOTION_DOT":"0.00027587","EPHEMERIS_TYPE":"0","ECCENTRICITY":"0.00018580","REF_FRAME":"TEME","MEAN_ELEMENT_THEORY":"SGP4","MEAN_MOTION":"15.71361661","EPOCH":"2023-03-06T19:58:23.316384","TLE_LINE1":"1 55580U 23020M   23065.83221431  .00027587  00000-0  21306-3 0  9994","DECAY_DATE":null,"SITE":"AFETR","ARG_OF_PERICENTER":"269.2934","MEAN_MOTION_DDOT":"0.0000000000000","LAUNCH_DATE":"2023-02-12","CLASSIFICATION_TYPE":"U","PERIAPSIS":"353.755","REV_AT_EPOCH":"357","COUNTRY_CODE":"US","RA_OF_ASC_NODE":"219.6871","OBJECT_NAME":"STARLINK-5757","ELEMENT_SET_NO":"999","MEAN_ANOMALY":"90.7720","GP_ID":"227630039","SEMIMAJOR_AXIS":"6733.141","FILE":"3853141","APOAPSIS":"356.257","CENTER_NAME":"EARTH","NORAD_CAT_ID":"55580","OBJECT_ID":"2023-020M","BSTAR":"0.00021306000000","RCS_SIZE":"LARGE","TIME_SYSTEM":"UTC","PERIOD":"91.640","TLE_LINE2":"2 55580  43.0002 219.6871 0001858 269.2934  90.7720 15.71361661  3572"},{"REF_FRAME":"TEME","ECCENTRICITY":"0.00013560","INCLINATION":"42.9982","MEAN_MOTION_DOT":"-0.01190501","OBJECT_TYPE":"PAYLOAD","EPHEMERIS_TYPE":"0","DECAY_DATE":null,"SITE":"AFETR","ARG_OF_PERICENTER":"279.8181","EPOCH":"2023-03-06T22:00:00.999936","MEAN_MOTION":"15.52731527","MEAN_ELEMENT_THEORY":"SGP4","TLE_LINE1":"1 55581U 23020N   23065.91667824 -.01190501  00000-0 -20588-1 0  9993","MEAN_MOTION_DDOT":"0.0000000000000","CLASSIFICATION_TYPE":"U","LAUNCH_DATE":"2023-02-12","PERIAPSIS":"407.837","RA_OF_ASC_NODE":"219.9687","REV_AT_EPOCH":"130","COUNTRY_CODE":"US","ELEMENT_SET_NO":"999","OBJECT_NAME":"STARLINK-5753","FILE":"3853141","SEMIMAJOR_AXIS":"6786.892","NORAD_CAT_ID":"55581","CENTER_NAME":"EARTH","APOAPSIS":"409.677","MEAN_ANOMALY":"238.0776","GP_ID":"227630789","TIME_SYSTEM":"UTC","RCS_SIZE":"LARGE","TLE_LINE2":"2 55581  42.9982 219.9687 0001356 279.8181 238.0776 15.52731527  1308","PERIOD":"92.740","OBJECT_ID":"2023-020N","BSTAR":"-0.02058800000000"},{"RA_OF_ASC_NODE":"219.7210","REV_AT_EPOCH":"357","COUNTRY_CODE":"US","ELEMENT_SET_NO":"999","OBJECT_NAME":"STARLINK-5741","SEMIMAJOR_AXIS":"6733.153","FILE":"3853141","APOAPSIS":"356.450","CENTER_NAME":"EARTH","NORAD_CAT_ID":"55582","MEAN_ANOMALY":"75.2652","GP_ID":"227629039","RCS_SIZE":"LARGE","TIME_SYSTEM":"UTC","PERIOD":"91.641","TLE_LINE2":"2 55582  43.0022 219.7210 0002127 284.7980  75.2652 15.71357615  3573","OBJECT_ID":"2023-020P","BSTAR":"0.00026452000000","REF_FRAME":"TEME","ECCENTRICITY":"0.00021270","OBJECT_TYPE":"PAYLOAD","MEAN_MOTION_DOT":"0.00034382","INCLINATION":"43.0022","EPHEMERIS_TYPE":"0","SITE":"AFETR","DECAY_DATE":null,"ARG_OF_PERICENTER":"284.7980","MEAN_ELEMENT_THEORY":"SGP4","MEAN_MOTION":"15.71357615","EPOCH":"2023-03-06T20:02:01.854816","TLE_LINE1":"1 55582U 23020P   23065.83474369  .00034382  00000-0  26452-3 0  9994","MEAN_MOTION_DDOT":"0.0000000000000","LAUNCH_DATE":"2023-02-12","CLASSIFICATION_TYPE":"U","PERIAPSIS":"353.586"}];
